O3B MPOWER F1           
1 54755U 22174A   24079.53531983 -.00000032  00000+0  00000+0 0  9995
2 54755   0.0650   5.7505 0006542   1.2966 253.5363  5.00115353 24356
